[{"OBJECT_NAME":"STARLINK-36910","OBJECT_ID":"2026-039V","EPOCH":"2026-03-17T06:00:02.000160","MEAN_MOTION":15.70937217,"ECCENTRICITY":0.00014858,"INCLINATION":42.9998,"RA_OF_ASC_NODE":8.5431,"ARG_OF_PERICENTER":267.4423,"MEAN_ANOMALY":72.7524,"EPHEMERIS_TYPE":0,"CLASSIFICATION_TYPE":"U","NORAD_CAT_ID":68005,"ELEMENT_SET_NO":999,"REV_AT_EPOCH":409,"BSTAR":-0.016554313,"MEAN_MOTION_DOT":-0.01894596,"MEAN_MOTION_DDOT":0},{"OBJECT_NAME":"STARLINK-36889","OBJECT_ID":"2026-039W","EPOCH":"2026-03-17T06:00:02.000160","MEAN_MOTION":15.65662937,"ECCENTRICITY":0.00014988,"INCLINATION":43,"RA_OF_ASC_NODE":8.6748,"ARG_OF_PERICENTER":261.706,"MEAN_ANOMALY":24.9751,"EPHEMERIS_TYPE":0,"CLASSIFICATION_TYPE":"U","NORAD_CAT_ID":68006,"ELEMENT_SET_NO":999,"REV_AT_EPOCH":409,"BSTAR":-0.020320732,"MEAN_MOTION_DOT":-0.01871269,"MEAN_MOTION_DDOT":0},{"OBJECT_NAME":"STARLINK-36592","OBJECT_ID":"2026-039X","EPOCH":"2026-03-17T06:00:02.000160","MEAN_MOTION":15.70047273,"ECCENTRICITY":0.00015532,"INCLINATION":43.0002,"RA_OF_ASC_NODE":8.5322,"ARG_OF_PERICENTER":267.2706,"MEAN_ANOMALY":76.9817,"EPHEMERIS_TYPE":0,"CLASSIFICATION_TYPE":"U","NORAD_CAT_ID":68007,"ELEMENT_SET_NO":999,"REV_AT_EPOCH":409,"BSTAR":-0.017112063,"MEAN_MOTION_DOT":-0.01887038,"MEAN_MOTION_DDOT":0},{"OBJECT_NAME":"STARLINK-36911","OBJECT_ID":"2026-039Y","EPOCH":"2026-03-17T06:00:02.000160","MEAN_MOTION":15.68536533,"ECCENTRICITY":0.00015852,"INCLINATION":42.9999,"RA_OF_ASC_NODE":8.5626,"ARG_OF_PERICENTER":264.3521,"MEAN_ANOMALY":67.7566,"EPHEMERIS_TYPE":0,"CLASSIFICATION_TYPE":"U","NORAD_CAT_ID":68008,"ELEMENT_SET_NO":999,"REV_AT_EPOCH":409,"BSTAR":-0.017974032,"MEAN_MOTION_DOT":-0.01863546,"MEAN_MOTION_DDOT":0},{"OBJECT_NAME":"STARLINK-36956","OBJECT_ID":"2026-039Z","EPOCH":"2026-03-17T06:00:02.000160","MEAN_MOTION":15.67388715,"ECCENTRICITY":0.00014898,"INCLINATION":43.0001,"RA_OF_ASC_NODE":8.5855,"ARG_OF_PERICENTER":261.0079,"MEAN_ANOMALY":61.469,"EPHEMERIS_TYPE":0,"CLASSIFICATION_TYPE":"U","NORAD_CAT_ID":68009,"ELEMENT_SET_NO":999,"REV_AT_EPOCH":409,"BSTAR":-0.018913859,"MEAN_MOTION_DOT":-0.01869237,"MEAN_MOTION_DDOT":0},{"OBJECT_NAME":"STARLINK-36953","OBJECT_ID":"2026-039AA","EPOCH":"2026-03-17T06:00:02.000160","MEAN_MOTION":15.74829569,"ECCENTRICITY":0.00015321,"INCLINATION":43.0003,"RA_OF_ASC_NODE":8.3909,"ARG_OF_PERICENTER":267.9329,"MEAN_ANOMALY":132.72,"EPHEMERIS_TYPE":0,"CLASSIFICATION_TYPE":"U","NORAD_CAT_ID":68010,"ELEMENT_SET_NO":999,"REV_AT_EPOCH":409,"BSTAR":-0.014032771,"MEAN_MOTION_DOT":-0.01863088,"MEAN_MOTION_DDOT":0},{"OBJECT_NAME":"STARLINK-36991","OBJECT_ID":"2026-039AB","EPOCH":"2026-03-17T06:00:02.000160","MEAN_MOTION":15.5676831,"ECCENTRICITY":0.00011385,"INCLINATION":42.9999,"RA_OF_ASC_NODE":9.0054,"ARG_OF_PERICENTER":275.0841,"MEAN_ANOMALY":238.4092,"EPHEMERIS_TYPE":0,"CLASSIFICATION_TYPE":"U","NORAD_CAT_ID":68011,"ELEMENT_SET_NO":999,"REV_AT_EPOCH":409,"BSTAR":-0.028260581,"MEAN_MOTION_DOT":-0.01841525,"MEAN_MOTION_DDOT":0},{"OBJECT_NAME":"STARLINK-36936","OBJECT_ID":"2026-039AC","EPOCH":"2026-03-17T06:00:02.000160","MEAN_MOTION":15.67159999,"ECCENTRICITY":0.00016213,"INCLINATION":43.0002,"RA_OF_ASC_NODE":8.5382,"ARG_OF_PERICENTER":264.714,"MEAN_ANOMALY":76.3575,"EPHEMERIS_TYPE":0,"CLASSIFICATION_TYPE":"U","NORAD_CAT_ID":68012,"ELEMENT_SET_NO":999,"REV_AT_EPOCH":409,"BSTAR":-0.018912271,"MEAN_MOTION_DOT":-0.01853627,"MEAN_MOTION_DDOT":0},{"OBJECT_NAME":"STARLINK-36967","OBJECT_ID":"2026-039AD","EPOCH":"2026-03-17T06:00:02.000160","MEAN_MOTION":15.581866,"ECCENTRICITY":0.00011914,"INCLINATION":43,"RA_OF_ASC_NODE":8.9528,"ARG_OF_PERICENTER":269.7164,"MEAN_ANOMALY":265.1862,"EPHEMERIS_TYPE":0,"CLASSIFICATION_TYPE":"U","NORAD_CAT_ID":68013,"ELEMENT_SET_NO":999,"REV_AT_EPOCH":409,"BSTAR":-0.026751812,"MEAN_MOTION_DOT":-0.01839783,"MEAN_MOTION_DDOT":0},{"OBJECT_NAME":"STARLINK-36985","OBJECT_ID":"2026-039AE","EPOCH":"2026-03-17T06:00:02.000160","MEAN_MOTION":15.75320244,"ECCENTRICITY":0.00014731,"INCLINATION":43.0002,"RA_OF_ASC_NODE":8.3622,"ARG_OF_PERICENTER":271.6747,"MEAN_ANOMALY":140.4406,"EPHEMERIS_TYPE":0,"CLASSIFICATION_TYPE":"U","NORAD_CAT_ID":68014,"ELEMENT_SET_NO":999,"REV_AT_EPOCH":409,"BSTAR":-0.013742545,"MEAN_MOTION_DOT":-0.01864353,"MEAN_MOTION_DDOT":0},{"OBJECT_NAME":"STARLINK-36335","OBJECT_ID":"2026-040A","EPOCH":"2026-03-17T06:00:02.000160","MEAN_MOTION":15.86151713,"ECCENTRICITY":0.00012629,"INCLINATION":97.2705,"RA_OF_ASC_NODE":25.0315,"ARG_OF_PERICENTER":109.1685,"MEAN_ANOMALY":228.84,"EPHEMERIS_TYPE":0,"CLASSIFICATION_TYPE":"U","NORAD_CAT_ID":68015,"ELEMENT_SET_NO":999,"REV_AT_EPOCH":359,"BSTAR":-0.0058458632,"MEAN_MOTION_DOT":-0.01274192,"MEAN_MOTION_DDOT":0},{"OBJECT_NAME":"STARLINK-36923","OBJECT_ID":"2026-040B","EPOCH":"2026-03-17T06:00:02.000160","MEAN_MOTION":15.86170196,"ECCENTRICITY":0.0001198,"INCLINATION":97.2706,"RA_OF_ASC_NODE":25.036,"ARG_OF_PERICENTER":93.1028,"MEAN_ANOMALY":253.7277,"EPHEMERIS_TYPE":0,"CLASSIFICATION_TYPE":"U","NORAD_CAT_ID":68016,"ELEMENT_SET_NO":999,"REV_AT_EPOCH":364,"BSTAR":-0.0059056675,"MEAN_MOTION_DOT":-0.01286708,"MEAN_MOTION_DDOT":0},{"OBJECT_NAME":"STARLINK-36568","OBJECT_ID":"2026-040C","EPOCH":"2026-03-17T06:00:02.000160","MEAN_MOTION":15.86199671,"ECCENTRICITY":0.00012639,"INCLINATION":97.2704,"RA_OF_ASC_NODE":25.0375,"ARG_OF_PERICENTER":103.883,"MEAN_ANOMALY":247.2342,"EPHEMERIS_TYPE":0,"CLASSIFICATION_TYPE":"U","NORAD_CAT_ID":68017,"ELEMENT_SET_NO":999,"REV_AT_EPOCH":364,"BSTAR":-0.0059708193,"MEAN_MOTION_DOT":-0.01300939,"MEAN_MOTION_DDOT":0},{"OBJECT_NAME":"STARLINK-36930","OBJECT_ID":"2026-040D","EPOCH":"2026-03-17T06:00:02.000160","MEAN_MOTION":15.86162677,"ECCENTRICITY":0.00013321,"INCLINATION":97.2702,"RA_OF_ASC_NODE":25.0336,"ARG_OF_PERICENTER":109.8819,"MEAN_ANOMALY":232.5288,"EPHEMERIS_TYPE":0,"CLASSIFICATION_TYPE":"U","NORAD_CAT_ID":68018,"ELEMENT_SET_NO":999,"REV_AT_EPOCH":364,"BSTAR":-0.0058841974,"MEAN_MOTION_DOT":-0.01282238,"MEAN_MOTION_DDOT":0},{"OBJECT_NAME":"STARLINK-36921","OBJECT_ID":"2026-040E","EPOCH":"2026-03-17T06:00:02.000160","MEAN_MOTION":15.86298327,"ECCENTRICITY":0.00013847,"INCLINATION":97.2711,"RA_OF_ASC_NODE":25.042,"ARG_OF_PERICENTER":109.3965,"MEAN_ANOMALY":250.021,"EPHEMERIS_TYPE":0,"CLASSIFICATION_TYPE":"U","NORAD_CAT_ID":68019,"ELEMENT_SET_NO":999,"REV_AT_EPOCH":364,"BSTAR":-0.0061817632,"MEAN_MOTION_DOT":-0.01347113,"MEAN_MOTION_DDOT":0},{"OBJECT_NAME":"STARLINK-36928","OBJECT_ID":"2026-040F","EPOCH":"2026-03-17T06:00:02.000160","MEAN_MOTION":15.86267893,"ECCENTRICITY":0.00012393,"INCLINATION":97.2703,"RA_OF_ASC_NODE":25.0386,"ARG_OF_PERICENTER":97.5945,"MEAN_ANOMALY":257.4746,"EPHEMERIS_TYPE":0,"CLASSIFICATION_TYPE":"U","NORAD_CAT_ID":68020,"ELEMENT_SET_NO":999,"REV_AT_EPOCH":364,"BSTAR":-0.0060040856,"MEAN_MOTION_DOT":-0.01311168,"MEAN_MOTION_DDOT":0}]
